IRIDIUM 143             
1 43258U 18030K   24363.37665875 -.00000290  00000+0 -11063-3 0  9995
2 43258  86.4003 154.5247 0001627 110.0907 250.0464 14.34216354353293
IRIDIUM 161             
1 43478U 18047C   24363.58826981  .00001071  00000+0  31232-3 0  9993
2 43478  86.4492 312.2904 0002272  86.4346 273.7115 14.43278874347880
IRIDIUM 152             
1 43479U 18047D   24363.27960759  .00000102  00000+0  29428-4 0  9991
2 43479  86.3965 312.2790 0002158  81.9623 278.1817 14.34218656345674
IRIDIUM 147             
1 43480U 18047E   24363.56502656  .00000782  00000+0  27208-3 0  9990
2 43480  86.3968 312.1554 0002444  78.7049 281.4421 14.34217436345718
IRIDIUM 110             
1 43481U 18047F   24363.29229176  .00000136  00000+0  41482-4 0  9998
2 43481  86.3971 312.3471 0002195  72.7270 287.4166 14.34219149345665
IRIDIUM 162             
1 43482U 18047G   24363.58196401  .00001083  00000+0  31583-3 0  9997
2 43482  86.4492 312.1905 0002029  78.8708 281.2721 14.43281743347877
IRIDIUM 160             
1 43569U 18061A   24363.51720383  .00000188  00000+0  60174-4 0  9998
2 43569  86.3966 280.6127 0002452  81.6541 278.4932 14.34215520336599
